CompanyName,Address,City,State,ZIPCode,PrimarySICCode,PrimarySICDescription,Latitude,Longitude
6 & Lodge Liquor,12730 W Mcnichols Rd,Detroit,MI,48235,592102,Liquors-Retail,42.4168849,-83.1709369
A & A Party Place,11901 Gratiot Ave,Detroit,MI,48213,592102,Liquors-Retail,42.4118171,-82.9934286
A & L Market,10826 Joy Rd,Detroit,MI,48204,592102,Liquors-Retail,42.3589791,-83.167001
AAA Liquor Store,13023 E Warren Ave,Detroit,MI,48215,592102,Liquors-Retail,42.3929431,-82.9666522
Abby's Party Store,6509 Michigan Ave,Detroit,MI,48210,592102,Liquors-Retail,42.3308933,-83.1237885
ABC Liquor Store,8024 Greenfield Rd,Detroit,MI,48228,592102,Liquors-Retail,42.3511989,-83.1962314
Action Market III,14234 Puritan St,Detroit,MI,48227,592102,Liquors-Retail,42.40927383,-83.18519736
Al Pisa Liquor,13900 Meyers Rd,Detroit,MI,48227,592102,Liquors-Retail,42.3883937,-83.1684001
Aladdin Beverage,19100 Van Dyke St,Detroit,MI,48234,514937,Beverages (Whls),42.43397714,-83.02416716
Amori's Market Place,1404 E Jefferson Ave,Detroit,MI,48207,592102,Liquors-Retail,42.33396185,-83.03235087
Amouri's Grand Foods,7225 E Jefferson Ave,Detroit,MI,48214,592102,Liquors-Retail,42.34751354,-83.00147661
Angie's Beer & Wine,8441 Joy Rd,Detroit,MI,48204,592102,Liquors-Retail,42.3588229,-83.1527954
Aston Liquor,17741 Schoolcraft,Detroit,MI,48223,592102,Liquors-Retail,42.386425,-83.2182892
Athens Grocery Co,579 Monroe St,Detroit,MI,48226,592102,Liquors-Retail,42.3356632,-83.041352
Athens Liquor Store,579 Monroe St,Detroit,MI,48226,541105,Grocers-Retail,42.3356632,-83.041352
Baileys Liquor,13940 Dexter Ave,Detroit,MI,48238,592102,Liquors-Retail,42.39338556,-83.13320868
Basil's Party Store,4515 Grand River Ave,Detroit,MI,48208,592102,Liquors-Retail,42.34635548,-83.08374508
Bellacino's Pizza & Grinders,2867 E 7 Mile Rd,Detroit,MI,48234,581222,Pizza,42.43300702,-83.07499916
Bellagio Liquor,12525 Mack Ave,Detroit,MI,48215,592102,Liquors-Retail,42.38380076,-82.96755455
Bellagio Liquor Shoppe,24341 W 7 Mile Rd,Detroit,MI,48219,592104,Beer & Ale-Retail,42.42871074,-83.28108468
Benchmark,15401 Joy Rd,Detroit,MI,48228,581208,Restaurants,42.3578727,-83.1961685
Big Daddy,9100 Oakland St,Detroit,MI,48211,592102,Liquors-Retail,42.3863309,-83.0725654
Big Daddy Liquor Store II,9191 Livernois Ave,Detroit,MI,48204,592102,Liquors-Retail,42.36275878,-83.13863278
Big Daddy's Liquors,18551 Joy Rd,Detroit,MI,48228,592102,Liquors-Retail,42.357489,-83.2223231
Big Top Liquor,3888 W Warren Ave,Detroit,MI,48208,592102,Liquors-Retail,42.3450579,-83.1059529
Blue Jay Market,15956 Livernois Ave,Detroit,MI,48238,592102,Liquors-Retail,42.40878834,-83.1404051
Bond Liquor,12950 Fenkell St,Detroit,MI,48227,592102,Liquors-Retail,42.4024176,-83.1723835
Brand Liquor Shoppe,6301 Mack Ave,Detroit,MI,48207,592102,Liquors-Retail,42.3615359,-83.0215656
Brightmoore Liquor,22002 Lyndon St,Detroit,MI,48223,581208,Restaurants,42.3933299,-83.2570149
Cadillac Food Plaza,111 Cadillac Sq,Detroit,MI,48226,592102,Liquors-Retail,42.3319513,-83.0442597
Capitol Foods Inc,12220 Schaefer Hwy,Detroit,MI,48227,592102,Liquors-Retail,42.3774999,-83.1777914
Carmen's Liquor,14650 Gratiot Ave,Detroit,MI,48205,541103,Convenience Stores,42.4395938,-82.974254
Ceasar's Liquor,18438 Van Dyke St,Detroit,MI,48234,592102,Liquors-Retail,42.42905585,-83.02398255
Central Liquor,7106 W Warren Ave,Detroit,MI,48210,592102,Liquors-Retail,42.34495325,-83.14060564
Central Market,20451 W 8 Mile Rd,Detroit,MI,48219,592102,Liquors-Retail,42.44350897,-83.2451632
Chalmers Plus Inc,11306 Chalmers St,Detroit,MI,48213,592102,Liquors-Retail,42.41780423,-82.9727961
Cheers Party Store,12344 E 8 Mile Rd,Detroit,MI,48205,592102,Liquors-Retail,42.44885162,-82.99980144
Chene Liquor,650 Chene St,Detroit,MI,48207,592102,Liquors-Retail,42.33982,-83.02357588
Cinderella Inc,7347 Puritan St,Detroit,MI,48238,592102,Liquors-Retail,42.40977646,-83.14426503
Cognac Castle,15415 Harper Ave,Detroit,MI,48224,592102,Liquors-Retail,42.4076572,-82.9550745
College Liquor Shoppe,15956 Livernois Ave,Detroit,MI,48238,592102,Liquors-Retail,42.40878834,-83.1404051
Conant Party Store,19663 Conant St,Detroit,MI,48234,592102,Liquors-Retail,42.4385733,-83.0780759
Convenience Store,15201 W 7 Mile Rd,Detroit,MI,48235,592102,Liquors-Retail,42.43042783,-83.19616672
Coonac Castle,15415 Harper Ave,Detroit,MI,48224,592102,Liquors-Retail,42.4076572,-82.9550745
Crown Liquor,7120 W Mcnichols Rd,Detroit,MI,48221,592102,Liquors-Retail,42.41722872,-83.14311871
Cru West Liquor,13970 Wyoming St,Detroit,MI,48238,592102,Liquors-Retail,42.3895449,-83.1587984
D & D Liquorland,16233 Schoolcraft St,Detroit,MI,48227,592102,Liquors-Retail,42.38680841,-83.2059474
D & L Liquor Shop,13325 Livernois Ave # A,Detroit,MI,48238,592102,Liquors-Retail,42.38578233,-83.13959925
D Town Liquor II,8910 Puritan St,Detroit,MI,48238,592102,Liquors-Retail,42.40980791,-83.15894217
D Town Liquor Shop,2597 Puritan St,Detroit,MI,48238,592102,Liquors-Retail,42.41006547,-83.12766121
Detroit Liquor Store Inc,11414 Livernois Ave,Detroit,MI,48204,592102,Liquors-Retail,42.3724589,-83.1385981
Devonshire Drugs,16003 Mack Ave,Detroit,MI,48224,592102,Liquors-Retail,42.38991853,-82.93538058
Diamond Liquor Shop,20723 Plymouth Rd,Detroit,MI,48228,592102,Liquors-Retail,42.3715372,-83.2443173
Dj's Liquor,5800 W Fort St,Detroit,MI,48209,592102,Liquors-Retail,42.30903,-83.0980336
Downtown Detroit Gas Station,1500 W Fort St,Detroit,MI,48216,541103,Convenience Stores,42.32465278,-83.06170137
East Town Liquor,10520 E Jefferson Ave,Detroit,MI,48214,592102,Liquors-Retail,42.3632772,-82.9775091
Eight Mile Liquor,17321 W 8 Mile Rd,Detroit,MI,48235,592102,Liquors-Retail,42.44417185,-83.21600335
Ewald Liquor & Spirt,3636 Ewald Cir,Detroit,MI,48204,592102,Liquors-Retail,42.3787302,-83.145356
Express Party Store,5347 Livernois Ave,Detroit,MI,48210,592102,Liquors-Retail,42.3389369,-83.1266308
F & S Liquor Shop,9249 Mack Ave,Detroit,MI,48214,592102,Liquors-Retail,42.37188769,-82.99466136
Fairlane Liquor Shop,18712 Ford Rd,Detroit,MI,48228,592102,Liquors-Retail,42.32905239,-83.22380639
Farmer Zeek's Liquor Shop,13635 W 7 Mile Rd,Detroit,MI,48235,592102,Liquors-Retail,42.43097305,-83.18091353
Festival Party Shoppe,15660 Fenkell St,Detroit,MI,48227,592102,Liquors-Retail,42.4016414,-83.2013879
Fielding Party Store,20501 Grand River Ave,Detroit,MI,48219,592102,Liquors-Retail,42.41059875,-83.24315825
First Class Liquor Inc,13921 E Warren Ave,Detroit,MI,48215,592102,Liquors-Retail,42.39401653,-82.96309026
Forest Liquor,4535 Trumbull St,Detroit,MI,48208,592102,Liquors-Retail,42.34898923,-83.07704863
Frank's Liquor & Party Store,5878 W Vernor Hwy,Detroit,MI,48209,541103,Convenience Stores,42.3166768,-83.1053059
Full House Market,6811 E Mcnichols Rd,Detroit,MI,48212,592102,Liquors-Retail,42.4196384,-83.0312665
Glass Bottle,9450 Greenfield Rd,Detroit,MI,48228,592102,Liquors-Retail,42.36490924,-83.19718677
Glass Bottle,9540 Greenfield Rd,Detroit,MI,48227,592102,Liquors-Retail,42.3659719,-83.1969134
Glens Market,10000 W Chicago,Detroit,MI,48204,592102,Liquors-Retail,42.3664048,-83.1584001
Good Stop Liquor,7446 W Mcnichols Rd,Detroit,MI,48221,592102,Liquors-Retail,42.41722161,-83.14565115
Graham's Party Shop,15801 Plymouth Rd,Detroit,MI,48227,592102,Liquors-Retail,42.3722134,-83.2014819
Grand House Of Liquor,17461 Telegraph Rd,Detroit,MI,48219,592102,Liquors-Retail,42.4189651,-83.2779345
Grand Liquor Party Shop,3701 Joy Rd,Detroit,MI,48206,592102,Liquors-Retail,42.37006413,-83.11760355
Grand Liquor Party Shop,9141 Dexter Ave,Detroit,MI,48206,592102,Liquors-Retail,42.369862,-83.1178886
Grand Value Liquor Inc,10920 Grand River Ave,Detroit,MI,48204,591205,Pharmacies,42.37372498,-83.15114804
Gratiot Rigley Store,12278 Gratiot Ave,Detroit,MI,48205,592102,Liquors-Retail,42.4155201,-82.9900426
Guilio's Market,21306 Schoolcraft,Detroit,MI,48223,592102,Liquors-Retail,42.3862674,-83.2503589
Handy Liquor Store,12600 Gunston St,Detroit,MI,48205,592102,Liquors-Retail,42.4172643,-83.0008651
Handy Spot,15900 E 8 Mile Rd,Detroit,MI,48205,592102,Liquors-Retail,42.44993836,-82.95754665
Happy Four Party Store,1444 W Fort St,Detroit,MI,48216,594716,Party Supplies,42.32493449,-83.06103452
Hayes Liquor Basket,11002 Hayes St,Detroit,MI,48213,592102,Liquors-Retail,42.4158792,-82.9644415
Heyden Drug Store,20201 W 7 Mile Rd,Detroit,MI,48219,592102,Liquors-Retail,42.42943587,-83.24077538
Holiday House Wine Shop,11200 Morang Dr,Detroit,MI,48224,592102,Liquors-Retail,42.4238677,-82.9437592
Hoover Market,19934 Hoover St,Detroit,MI,48205,592102,Liquors-Retail,42.4424753,-83.0046396
House Of Liquor & Wine Shop,6290 Tireman St,Detroit,MI,48204,592102,Liquors-Retail,42.3522839,-83.1352304
Ice Liquor,18750 W Warren Ave,Detroit,MI,48228,592102,Liquors-Retail,42.3435519,-83.2241594
Ila's Liquor Shop ATM,13003 Gratiot Ave,Detroit,MI,48205,594716,Party Supplies,42.4217792,-82.9869182
Imperial Party Shoppe,9743 Linwood St,Detroit,MI,48206,592102,Liquors-Retail,42.37697017,-83.11120767
J & S Liquor,18244 Joy Rd,Detroit,MI,48228,592102,Liquors-Retail,42.35790983,-83.2182477
J B Liquor Market,13207 W Mcnichols Rd,Detroit,MI,48235,592102,Liquors-Retail,42.41652913,-83.17553147
J's Liquor Shoppe,15260 E 8 Mile Rd,Detroit,MI,48205,592102,Liquors-Retail,42.44980947,-82.96535558
Jane's Market Party Store,7945 Charlevoix St,Detroit,MI,48214,592102,Liquors-Retail,42.36269781,-83.00364035
Jazzy Liquor Store,1424 Woodward Ave,Detroit,MI,48226,592102,Liquors-Retail,42.3351491,-83.0486926
Jm Liquor,20650 Fenkell St,Detroit,MI,48223,592102,Liquors-Retail,42.4008832,-83.2444657
Joe's Liquor,2933 Russell St,Detroit,MI,48207,592102,Liquors-Retail,42.34841949,-83.04195303
Joy Express,5835 Joy Rd,Detroit,MI,48204,592102,Liquors-Retail,42.36094489,-83.1349446
Joy Liquor Palace,20100 Joy Rd,Detroit,MI,48228,592102,Liquors-Retail,42.3577918,-83.2373887
Junction Party Store,3260 Junction St,Detroit,MI,48210,592102,Liquors-Retail,42.32794273,-83.10903138
K C Liquor,1370 S Oakwood,Detroit,MI,48217,592102,Liquors-Retail,42.2856056,-83.1631095
K S M Mini Mart,2967 Woodward Ave,Detroit,MI,48201,541103,Convenience Stores,42.34356184,-83.05542932
Kasey's Beer & Wine,16140 Joy Rd,Detroit,MI,48228,592102,Liquors-Retail,42.3583078,-83.2040839
KAYS Korner Of Detroit,9820 Dickerson St,Detroit,MI,48213,592102,Liquors-Retail,42.40858433,-82.97698149
Lance Liquor,13800 Livernois Ave,Detroit,MI,48238,592102,Liquors-Retail,42.3897529,-83.1393219
Lanore Market,8716 Michigan Ave,Detroit,MI,48210,592102,Liquors-Retail,42.3300446,-83.1490027
Leenas Enterprises Inc,5038 Mcdougall St,Detroit,MI,48211,592102,Liquors-Retail,42.3681717,-83.0359163
Legend Liquor,8052 E 8 Mile Rd,Detroit,MI,48234,592102,Liquors-Retail,42.44810427,-83.02337259
Liberty Pharmacy,4802 W Vernor Hwy,Detroit,MI,48209,592102,Liquors-Retail,42.31885922,-83.09954218
Lindsay Liquor,17256 W 7 Mile Rd,Detroit,MI,48235,592102,Liquors-Retail,42.4302683,-83.21341496
Linwood Express,8929 Linwood St,Detroit,MI,48206,592102,Liquors-Retail,42.371869,-83.1080983
Linwood Liquor,12501 Linwood St,Detroit,MI,48206,592102,Liquors-Retail,42.3878309,-83.1188899
Liquor Castle Inc,4233 Joy Rd,Detroit,MI,48204,592102,Liquors-Retail,42.3680453,-83.1224959
Liquor Express,7420 W 7 Mile Rd,Detroit,MI,48221,592102,Liquors-Retail,42.43159966,-83.14606472
Liquor Island Market,17342 E Warren Ave,Detroit,MI,48224,592102,Liquors-Retail,42.40715575,-82.9266018
Liquor Palace,20078 Livernois Ave,Detroit,MI,48221,592102,Liquors-Retail,42.4415142,-83.1414829
Liquor Plus,2906 W Grand Blvd,Detroit,MI,48202,592102,Liquors-Retail,42.3672399,-83.0800954
Livernois Mcgraw Party Store,5545 Livernois Ave,Detroit,MI,48210,592102,Liquors-Retail,42.3404482,-83.1275786
Luxor Liquor,10425 W Mcnichols Rd,Detroit,MI,48221,592102,Liquors-Retail,42.4165347,-83.1652415
Lynch Liquor,10234 Van Dyke St,Detroit,MI,48234,592104,Beer & Ale-Retail,42.4046622,-83.0227567
Mack Bewick Market-Munaco Mkt,10300 Mack Ave,Detroit,MI,48214,592102,Liquors-Retail,42.3744865,-82.9881215
Mack-Bewick Munaco Super Mkt,1050 Clay St,Detroit,MI,48211,592102,Liquors-Retail,42.37743567,-83.0648897
Market Street,1050 Clay St,Detroit,MI,48211,592102,Liquors-Retail,42.37743567,-83.0648897
Marks Party Store,5354 Tireman St,Detroit,MI,48204,592102,Liquors-Retail,42.35194012,-83.12381441
Maryland Liquor Shop Inc,15015 Mack Ave,Detroit,MI,48224,592102,Liquors-Retail,42.3877355,-82.9464685
Mcdonnell Drugs,16636 Harper Ave,Detroit,MI,48224,592102,Liquors-Retail,42.41349702,-82.94083795
Mega Liquor,17200 W Mcnichols Rd,Detroit,MI,48235,592102,Liquors-Retail,42.4159404,-83.2124282
Michaels Liquor Store,17951 John R St,Detroit,MI,48203,592102,Liquors-Retail,42.42391994,-83.10212624
Michigan Liquor,5422 Michigan Ave,Detroit,MI,48210,592102,Liquors-Retail,42.3314687,-83.11001
Midtown Liquor & Deli,4161 Woodward Ave,Detroit,MI,48201,737206,Computer Software,42.35119425,-83.06053853
Mirage Communication,13887 Gratiot Ave,Detroit,MI,48205,592102,Liquors-Retail,42.4295279,-82.9818007
Miramar Market,18225 Schaefer Hwy,Detroit,MI,48235,592102,Liquors-Retail,42.4242854,-83.1805119
Moore Liquor,5510 E 7 Mile Rd,Detroit,MI,48234,592102,Liquors-Retail,42.43340255,-83.04691764
Motor City Market,20500 Plymouth Rd,Detroit,MI,48228,592102,Liquors-Retail,42.3721559,-83.2415554
Motown Food & Liquor,18910 W 7 Mile Rd,Detroit,MI,48219,592102,Liquors-Retail,42.42993857,-83.22868365
N & R Liquor Inc,18320 W Chicago St,Detroit,MI,48228,592102,Liquors-Retail,42.36510166,-83.21932935
New Center Liquor Store,7400 Woodward Ave,Detroit,MI,48202,592102,Liquors-Retail,42.3714993,-83.0734989
Newport Party Store,14201 Harper Ave,Detroit,MI,48213,592102,Liquors-Retail,42.4041345,-82.9672538
Norm's Liquor Express Inc,3401 Grand River Ave,Detroit,MI,48208,592102,Liquors-Retail,42.34849156,-83.09193672
Northland Party Store Inc,18245 W 8 Mile Rd,Detroit,MI,48219,592102,Liquors-Retail,42.4440391,-83.221973
Northwest Store Inc,20447 W 7 Mile Rd,Detroit,MI,48219,592102,Liquors-Retail,42.42936845,-83.24363716
Omni Food & Beverage Inc,14701 W 7 Mile Rd,Detroit,MI,48235,592102,Liquors-Retail,42.42705888,-83.19480296
One Stop Liquor,8536 Linwood St,Detroit,MI,48206,592102,Liquors-Retail,42.3686274,-83.1051731
Packard Liquor Store,1481 E Grand Blvd,Detroit,MI,48211,592102,Liquors-Retail,42.3789624,-83.0246495
Palace Plaza,6416 E Jefferson Ave,Detroit,MI,48207,592102,Liquors-Retail,42.34434831,-83.0082225
Palms Liquor,6324 Gratiot Ave,Detroit,MI,48207,592102,Liquors-Retail,42.36508217,-83.02369183
Papa Sam's Food & Liquor Inc,14622 E Warren Ave,Detroit,MI,48215,592102,Liquors-Retail,42.3961172,-82.95672608
Paradise Food & Liquor,20535 Joy Rd,Detroit,MI,48228,592102,Liquors-Retail,42.357153,-83.2417182
Park Lane Cork & Bottle Shoppe,19150 W Mcnichols Rd,Detroit,MI,48219,592102,Liquors-Retail,42.41542579,-83.22980641
Parkside Market,12400 E Warren Ave,Detroit,MI,48215,592102,Liquors-Retail,42.3901259,-82.972714
Party Center,3940 E Outer Dr,Detroit,MI,48234,592102,Liquors-Retail,42.44091038,-83.03532201
Party Plus Market,9924 Wyoming St,Detroit,MI,48204,592102,Liquors-Retail,42.3695724,-83.1581917
Piccadilly Party Shop,14100 E 8 Mile Rd,Detroit,MI,48205,594716,Party Supplies,42.44937518,-82.97831056
Pied Piper Market,16215 Livernois Ave,Detroit,MI,48221,592102,Liquors-Retail,42.4111074,-83.1409262
Pik-A-Snak Party Shoppe,4607 E 7 Mile Rd,Detroit,MI,48234,592102,Liquors-Retail,42.43334219,-83.05758612
Players Liquor,13555 W Chicago St,Detroit,MI,48228,592102,Liquors-Retail,42.36571378,-83.17717205
Plymouth Express,10450 Plymouth Rd,Detroit,MI,48204,421205,Delivery Service,42.37345567,-83.16397242
Plymouth Liquor,18531 Plymouth Rd,Detroit,MI,48228,592102,Liquors-Retail,42.3718171,-83.2222579
Pony Keg Wine Shop,17900 E Warren Ave,Detroit,MI,48224,592102,Liquors-Retail,42.4092762,-82.9200193
Prestige Liquor,8045 Linwood St,Detroit,MI,48206,592102,Liquors-Retail,42.3646998,-83.1033504
Prince Liquor,9963 Gratiot Ave,Detroit,MI,48213,592102,Liquors-Retail,42.3938374,-83.0052137
Princess Superette Market,16342 W Mcnichols Rd,Detroit,MI,48235,592102,Liquors-Retail,42.41586613,-83.20842356
Puritan Liquor,16046 Puritan St,Detroit,MI,48227,592102,Liquors-Retail,42.40873326,-83.20493282
Randy's Market,18054 Mount Elliott St,Detroit,MI,48234,592102,Liquors-Retail,42.42669181,-83.03856146
Regal Spirit,21741 Fenkell St,Detroit,MI,48223,592102,Liquors-Retail,42.40021987,-83.25576532
Right Stop,11710 E Mcnichols Rd,Detroit,MI,48205,592102,Liquors-Retail,42.4201287,-83.0026383
Riviera Discount House,9311 Grand River Ave,Detroit,MI,48204,592102,Liquors-Retail,42.36579399,-83.13192577
Rosedale Party Store,18151 W Mcnichols Rd,Detroit,MI,48219,592102,Liquors-Retail,42.41545085,-83.21965947
Sam's Food New M R,7459 Joy Rd,Detroit,MI,48204,541104,Food Products-Retail,42.3590241,-83.1439194
Santa Barbara Market,7700 W Mcnichols Rd,Detroit,MI,48221,592102,Liquors-Retail,42.4173356,-83.1490735
Savaya Bros Liquor Store,19441 Plymouth Rd,Detroit,MI,48228,592102,Liquors-Retail,42.3716574,-83.2322759
Savaya Liquor,20441 James Couzens Fwy,Detroit,MI,48235,592102,Liquors-Retail,42.4424934,-83.2012879
Schoolcraft,19300 Schoolcraft,Detroit,MI,48223,592102,Liquors-Retail,42.38647488,-83.23086668
Scotty J Liquor Shoppe,20840 W Chicago St,Detroit,MI,48228,592102,Liquors-Retail,42.36465847,-83.24524621
Selena Liquor Lane,12333 Rosa Parks Blvd,Detroit,MI,48206,592102,Liquors-Retail,42.39022563,-83.10911225
Semma Liquor Shop,19345 W Warren Ave,Detroit,MI,48228,592102,Liquors-Retail,42.34312245,-83.22983867
Serv-U-Well,16945 W Warren Ave,Detroit,MI,48228,592102,Liquors-Retail,42.3431562,-83.2118212
Sesi Liquor Stone Inc,9820 Dickerson St,Detroit,MI,48213,592102,Liquors-Retail,42.40858433,-82.97698149
Seven Mile Kennedy Liquor,13344 W 7 Mile Rd,Detroit,MI,48235,592102,Liquors-Retail,42.43122066,-83.17822683
Seven Van Party Store,7705 E 7 Mile Rd,Detroit,MI,48234,592102,Liquors-Retail,42.43403932,-83.02526055
Shop N Save Liquor,7347 Puritan St,Detroit,MI,48238,592102,Liquors-Retail,42.40977646,-83.14426503
Shorty's Liquor Store,12840 E 7 Mile Rd,Detroit,MI,48205,592102,Liquors-Retail,42.43465104,-82.99312966
Spot Lite Liquor,16210 Grand River Ave,Detroit,MI,48227,592102,Liquors-Retail,42.39631436,-83.20718648
Spotlight Liquor,24300 W Mcnichols Rd,Detroit,MI,48219,592102,Liquors-Retail,42.4147377,-83.2799663
Springwell Liquor,1848 Springwells St,Detroit,MI,48209,592102,Liquors-Retail,42.30847913,-83.12497474
Starlight Liquor Store,10544 Fenkell St,Detroit,MI,48238,592102,Liquors-Retail,42.4025517,-83.1660329
Stop & Go Deli,14445 Schaefer Hwy,Detroit,MI,48227,592102,Liquors-Retail,42.3946134,-83.1791719
Stop N Go Deli,3205 W Mcnichols Rd,Detroit,MI,48221,541103,Convenience Stores,42.4170259,-83.1332419
Sunset Liquors,3600 Gratiot Ave,Detroit,MI,48207,592102,Liquors-Retail,42.3623323,-83.0252562
Sunshine Liquor Plus,3300 Joy Rd,Detroit,MI,48206,592102,Liquors-Retail,42.3713332,-83.1151285
Sunshine Liquor Shoppe,15349 W Mcnichols Rd,Detroit,MI,48235,592102,Liquors-Retail,42.4157516,-83.1977566
Sunshine Market,14812 Livernois Ave,Detroit,MI,48238,592102,Liquors-Retail,42.3983132,-83.1396891
Super Star Liquor,15038 Houston Whittier St,Detroit,MI,48205,592102,Liquors-Retail,42.4206624,-82.96704406
Superior Liquor Inc,10345 W 8 Mile Rd,Detroit,MI,48221,592102,Liquors-Retail,42.4454789,-83.16538326
Supreme Liquor Shop Inc,18942 Hayes St,Detroit,MI,48205,592102,Liquors-Retail,42.4344482,-82.9650682
Telkaif Party Store,15935 W 7 Mile Rd,Detroit,MI,48235,592102,Liquors-Retail,42.43025645,-83.20452421
Three Brothers Party Store,19540 Joy Rd,Detroit,MI,48228,592102,Liquors-Retail,42.3578396,-83.2331367
Thrifty Liquor Plus,3300 Joy Rd,Detroit,MI,48206,592102,Liquors-Retail,42.3713332,-83.1151285
Tiger Liquor,10832 Puritan St,Detroit,MI,48238,592102,Liquors-Retail,42.4097932,-83.1694288
Trade Fair Market,3406 Fenkell St,Detroit,MI,48238,592102,Liquors-Retail,42.40288935,-83.13438585
United Party Shoppe,22040 W 7 Mile Rd,Detroit,MI,48219,592102,Liquors-Retail,42.42911593,-83.25883691
Universal Liquor & Wine,19526 Grand River Ave,Detroit,MI,48223,592102,Liquors-Retail,42.40684969,-83.23334203
University Village Market,4700 Anthony Wayne Dr,Detroit,MI,48201,592102,Liquors-Retail,42.35239636,-83.06982113
Uptown Food & Liquor,18201 W 7 Mile Rd,Detroit,MI,48219,592102,Liquors-Retail,42.42989772,-83.22050163
Van Dyke Market,6455 Van Dyke St,Detroit,MI,48213,592102,Liquors-Retail,42.38742429,-83.0211157
Vandyke Liquor,6455 Van Dyke St,Detroit,MI,48213,592102,Liquors-Retail,42.38742429,-83.0211157
Vanity Liquor Shop,20516 Schaefer Hwy,Detroit,MI,48235,592102,Liquors-Retail,42.4443279,-83.1803704
Vaughan Liquor Inc,20050 W Warren Ave,Detroit,MI,48228,592102,Liquors-Retail,42.3433728,-83.2364772
Vegas Liquor & Wine Shop,8024 Greenfield Rd,Detroit,MI,48228,592102,Liquors-Retail,42.3511989,-83.1962314
Vernor Express Liquor Store,3855 W Vernor Hwy,Detroit,MI,48216,592102,Liquors-Retail,42.3221367,-83.0902052
Vernor Liquor Inc,5878 W Vernor Hwy,Detroit,MI,48209,592102,Liquors-Retail,42.3166768,-83.1053059
Victory Liquor & Food Store,16200 W Warren Ave,Detroit,MI,48228,592102,Liquors-Retail,42.34365995,-83.20364825
Village Liquor & Deli,14241 W Mcnichols Rd,Detroit,MI,48235,592102,Liquors-Retail,42.4162545,-83.1859567
Village Liquor Shoppe,19024 Grand River Ave,Detroit,MI,48223,592102,Liquors-Retail,42.40484976,-83.228362
Vince's Food Ctr Inc,2601 E Mcnichols Rd,Detroit,MI,48212,592102,Liquors-Retail,42.4188171,-83.0756876
VIP Liquor,14050 Joseph Campau St,Detroit,MI,48212,592102,Liquors-Retail,42.418431,-83.0721508
Von's Express,7350 Grand River Ave,Detroit,MI,48204,592102,Liquors-Retail,42.35745601,-83.11079969
Von's Market,14918 Greenfield Rd,Detroit,MI,48227,592102,Liquors-Retail,42.3982614,-83.198178
Vsop Liquor,10715 W 8 Mile Rd,Detroit,MI,48221,592102,Liquors-Retail,42.44533341,-83.1699919
Western Liquor Store,12820 Plymouth Rd,Detroit,MI,48227,592102,Liquors-Retail,42.37328715,-83.16963982
Whiskey Whiskey,1000 Maple St,Detroit,MI,48207,592102,Liquors-Retail,42.3407655,-83.039789
Wine Basket Party Shop,16450 E Warren Ave,Detroit,MI,48224,592102,Liquors-Retail,42.4032453,-82.9366349
Winthrop & Six Market,15619 W Mcnichols Rd,Detroit,MI,48235,592102,Liquors-Retail,42.4156409,-83.2010682
Wood's Liquor Shop,16146 Plymouth Rd,Detroit,MI,48227,592102,Liquors-Retail,42.37256738,-83.20412935
Woodmere Party Store,9210 W Fort St,Detroit,MI,48209,592102,Liquors-Retail,42.29651849,-83.1290105
Yaldo Party Store,15500 E Warren Ave,Detroit,MI,48224,592102,Liquors-Retail,42.3989486,-82.9483353
