CompanyName,Address,City,State,ZIPCode,PrimarySICCode,PrimarySICDescription,SICCode1,SICCode1Description,Latitude,Longitude
1701 Express Inc,1701 E Grand Blvd,Detroit,MI,48211,554101,Service Stations-Gasoline & Oil,554101,Service Stations-Gasoline & Oil,42.3762689,-83.0319432
7-Eleven,139 Cadillac Sq,Detroit,MI,48226,541103,Convenience Stores,541103,Convenience Stores,42.3319497,-83.0436732
7-Eleven,2660 E Jefferson Ave,Detroit,MI,48207,541103,Convenience Stores,541103,Convenience Stores,42.33841419,-83.0220247
A & A Food Mart,14600 W Chicago St,Detroit,MI,48228,541105,Grocers-Retail,541105,Grocers-Retail,42.36567189,-83.18750941
A & A Tire Shop,7495 Greenfield Rd,Detroit,MI,48228,553123,Tire-Dealers-Retail,553123,Tire-Dealers-Retail,42.3474429,-83.1968062
A & W Food Ctr,13016 Mack Ave,Detroit,MI,48215,541105,Grocers-Retail,541105,Grocers-Retail,42.3844671,-82.9613631
A A Auto Sales,7499 Greenfield Rd,Detroit,MI,48228,551103,Automobile Dealers-Used Cars,551103,Automobile Dealers-Used Cars,42.34692686,-83.19650534
Abir Dollar Plus,18200 Plymouth Rd,Detroit,MI,48228,541105,Grocers-Retail,541105,Grocers-Retail,42.37232387,-83.21803013
Adalupana Mkt Gualalup,6680 Michigan Ave,Detroit,MI,48210,541105,Grocers-Retail,541105,Grocers-Retail,42.3315225,-83.1261394
Ahmed Groceries,12460 Conant St,Detroit,MI,48212,541105,Grocers-Retail,541105,Grocers-Retail,42.410989,-83.05807
Al Hussein Supermarket Inc,6735 Greenfield Rd,Detroit,MI,48228,541105,Grocers-Retail,541105,Grocers-Retail,42.34029085,-83.19624233
Al-Naimi Enterprises Inc,3431 Joy Rd,Detroit,MI,48206,541105,Grocers-Retail,541105,Grocers-Retail,42.3704573,-83.1161691
ALDI,14708 Mack Ave,Detroit,MI,48215,541105,Grocers-Retail,541105,Grocers-Retail,42.38689863,-82.94966047
ALDI,15415 Gratiot Ave,Detroit,MI,48205,541105,Grocers-Retail,541105,Grocers-Retail,42.44697948,-82.96995037
Algo Especial Super Mercado,2628 Bagley St,Detroit,MI,48216,541105,Grocers-Retail,541105,Grocers-Retail,42.32539395,-83.07847443
Americana Foods,15041 Plymouth Rd,Detroit,MI,48227,541105,Grocers-Retail,541105,Grocers-Retail,42.3724062,-83.1927876
Amori's Market Place,1404 E Jefferson Ave,Detroit,MI,48207,592102,Liquors-Retail,592102,Liquors-Retail,42.33396185,-83.03235087
Angelinas Market,5604 Florida St,Detroit,MI,48210,541105,Grocers-Retail,541105,Grocers-Retail,42.3360308,-83.13988
Apollo Market,20250 W 7 Mile Rd,Detroit,MI,48219,541105,Grocers-Retail,541105,Grocers-Retail,42.42960274,-83.24133168
Arova Dollar & More,15144 Grand River Ave,Detroit,MI,48227,533101,Variety Stores,533101,Variety Stores,42.39094328,-83.19387318
Athens Grocery Co,579 Monroe St,Detroit,MI,48226,592102,Liquors-Retail,592102,Liquors-Retail,42.3356632,-83.041352
Athens Liquor Store,579 Monroe St,Detroit,MI,48226,541105,Grocers-Retail,541105,Grocers-Retail,42.3356632,-83.041352
Atlas Market,2645 W Davison,Detroit,MI,48238,541105,Grocers-Retail,541105,Grocers-Retail,42.3921795,-83.1230114
Azteca Supermercado,2411 Central St,Detroit,MI,48209,541105,Grocers-Retail,541105,Grocers-Retail,42.3138202,-83.125695
Baker's Keyboard Lounge,20510 Livernois Ave,Detroit,MI,48221,581304,Night Clubs,581304,Night Clubs,42.4453804,-83.1416089
Bana Food Mart & Fuels,3561 Mount Elliott St,Detroit,MI,48207,541105,Grocers-Retail,541105,Grocers-Retail,42.36057979,-83.02124956
Bangla Town,3611 Carpenter St,Detroit,MI,48212,541105,Grocers-Retail,541105,Grocers-Retail,42.4091668,-83.0580255
Banner Supermarket,14424 Schaefer Hwy,Detroit,MI,48227,541105,Grocers-Retail,541105,Grocers-Retail,42.3943469,-83.1777824
Barakah Grocery,17007 W Warren Ave,Detroit,MI,48228,541105,Grocers-Retail,541105,Grocers-Retail,42.343142,-83.2124847
Barakah Poultry,17007 W Warren Ave,Detroit,MI,48228,549907,Poultry-Retail,549907,Poultry-Retail,42.343142,-83.2124847
Big Apple Fruit & Deli,7335 Mcgraw St,Detroit,MI,48210,541105,Grocers-Retail,541105,Grocers-Retail,42.33660137,-83.13775134
Big Jhons Party Store,15050 Puritan St,Detroit,MI,48227,541105,Grocers-Retail,541105,Grocers-Retail,42.40900657,-83.19358189
Blue Light Market,8844 Mack Ave,Detroit,MI,48214,541105,Grocers-Retail,541105,Grocers-Retail,42.3703518,-82.9971377
Boulevard Market,2699 W Grand Blvd,Detroit,MI,48208,541105,Grocers-Retail,541105,Grocers-Retail,42.36541488,-83.08679037
Buchanan Market,5716 Buchanan St,Detroit,MI,48210,541105,Grocers-Retail,541105,Grocers-Retail,42.33482273,-83.11568014
Checkers Drugs & Food,20650 Fenkell St,Detroit,MI,48223,541105,Grocers-Retail,541105,Grocers-Retail,42.4008832,-83.2444657
Chene & Trombley Market,3700 Holborn St,Detroit,MI,48211,541105,Grocers-Retail,541105,Grocers-Retail,42.37778674,-83.03469161
Chene Trombly Market,3700 E Edsel Ford Fwy,Detroit,MI,48211,541105,Grocers-Retail,541105,Grocers-Retail,42.38134728,-83.04573323
Chesterfield Food Market,2200 W Davison,Detroit,MI,48238,541105,Grocers-Retail,541105,Grocers-Retail,42.3954322,-83.1164439
Chitterling Cleaners Inc,15724 W 7 Mile Rd,Detroit,MI,48235,541105,Grocers-Retail,541105,Grocers-Retail,42.43046251,-83.20247559
City Market,575 Brush St,Detroit,MI,48226,541105,Grocers-Retail,541105,Grocers-Retail,42.33159083,-83.0419656
D & L Liquor Shop,13325 Livernois Ave # A,Detroit,MI,48238,592102,Liquors-Retail,592102,Liquors-Retail,42.38578233,-83.13959925
Del Point Food Ctr,16700 Harper Ave,Detroit,MI,48224,541105,Grocers-Retail,541105,Grocers-Retail,42.41395839,-82.94022893
Delta Market Place Inc,10848 W 7 Mile Rd,Detroit,MI,48221,541105,Grocers-Retail,541105,Grocers-Retail,42.43134486,-83.16966948
Dexter Grocery & Gas Inc,11301 Dexter Ave,Detroit,MI,48206,541105,Grocers-Retail,541105,Grocers-Retail,42.3769914,-83.1227209
Diamond Dot,19457 Mound Rd,Detroit,MI,48234,541105,Grocers-Retail,541105,Grocers-Retail,42.4381751,-83.0443499
Dobry Super Market,2351 Junction St,Detroit,MI,48209,541105,Grocers-Retail,541105,Grocers-Retail,42.32129857,-83.10445397
E & L Supermercado,6000 W Vernor Hwy,Detroit,MI,48209,549927,Mexican & Latin American Food Products,549927,Mexican & Latin American Food Products,42.3163722,-83.1059405
El Popo,3438 Bagley St,Detroit,MI,48216,729941,Shopping Service-Personal,729941,Shopping Service-Personal,42.32329196,-83.08525084
Elalteno,1346 Lawndale St,Detroit,MI,48209,541105,Grocers-Retail,541105,Grocers-Retail,42.3029529,-83.1279494
Eve's Downtown Gourmet,1411 Washington Blvd,Detroit,MI,48226,541105,Grocers-Retail,541105,Grocers-Retail,42.333774,-83.05128177
Evergreen Market,8048 Evergreen Ave,Detroit,MI,48228,541105,Grocers-Retail,541105,Grocers-Retail,42.3510781,-83.2352911
Fair Line Food Ctr,16520 W Warren Ave,Detroit,MI,48228,541105,Grocers-Retail,541105,Grocers-Retail,42.3437764,-83.2074824
Family Food Super Store,8665 Rosa Parks Blvd,Detroit,MI,48206,541105,Grocers-Retail,541105,Grocers-Retail,42.3727398,-83.09700742
Farm Market Wholesale,6170 Toledo St,Detroit,MI,48209,509223,Wholesalers,509223,Wholesalers,42.3189303,-83.1100565
Farmer John Food Ctr,9731 Harper Ave,Detroit,MI,48213,541105,Grocers-Retail,541105,Grocers-Retail,42.393453,-83.0064734
Farmer Kay,24311 W Mcnichols Rd,Detroit,MI,48219,541105,Grocers-Retail,541105,Grocers-Retail,42.4141679,-83.2799349
Farmers Food Ctr,2411 Central St,Detroit,MI,48209,541105,Grocers-Retail,541105,Grocers-Retail,42.3138202,-83.125695
Fftp F,14629 Snowden St,Detroit,MI,48227,541105,Grocers-Retail,541105,Grocers-Retail,42.3967346,-83.1770145
Food 4 Less,14020 Grand River Ave,Detroit,MI,48227,541105,Grocers-Retail,541105,Grocers-Retail,42.3862504,-83.18221184
Food Giant,14040 Greenfield Rd,Detroit,MI,48227,541105,Grocers-Retail,541105,Grocers-Retail,42.3891985,-83.1974738
Food Pride Supermarket,500 E Warren Ave,Detroit,MI,48201,541105,Grocers-Retail,541105,Grocers-Retail,42.35858416,-83.05979378
Foster Market,14800 Wyoming St,Detroit,MI,48238,541105,Grocers-Retail,541105,Grocers-Retail,42.3980884,-83.1591566
Four J's Market,15291 E 7 Mile Rd,Detroit,MI,48205,541105,Grocers-Retail,541105,Grocers-Retail,42.43554618,-82.96438191
Galaxy Food Ctr,16120 Telegraph Rd,Detroit,MI,48219,541105,Grocers-Retail,541105,Grocers-Retail,42.40756787,-83.27660268
Gigante Prince Valley,5931 Michigan Ave,Detroit,MI,48210,531104,Retail Shops,531104,Retail Shops,42.33105582,-83.11583336
Glory Supermarket,12230 E 8 Mile Rd,Detroit,MI,48205,541105,Grocers-Retail,541105,Grocers-Retail,42.44882293,-83.00088683
Glory Supermarket,8000 W Outer Dr # 1,Detroit,MI,48235,541105,Grocers-Retail,541105,Grocers-Retail,42.41944148,-83.2149541
Grace Food Market,12055 Morang Dr,Detroit,MI,48224,541105,Grocers-Retail,541105,Grocers-Retail,42.42670545,-82.95166004
Grand Price Food Ctr,12955 Grand River Ave,Detroit,MI,48227,541105,Grocers-Retail,541105,Grocers-Retail,42.38157663,-83.17109205
Gratiot Fairmount Market,14999 Gratiot Ave,Detroit,MI,48205,541105,Grocers-Retail,541105,Grocers-Retail,42.44382758,-82.97203691
Green Genie Inc,24600 W Mcnichols Rd,Detroit,MI,48219,541105,Grocers-Retail,541105,Grocers-Retail,42.4145502,-83.2838754
Green Safe Products,14805 Linwood St,Detroit,MI,48238,599941,Restaurant Equipment & Supplies-Retail,599941,Restaurant Equipment & Supplies-Retail,42.39981782,-83.12668259
Greenfield Market,15530 Puritan St,Detroit,MI,48227,541105,Grocers-Retail,541105,Grocers-Retail,42.40883252,-83.19946153
Gulia Mini Mart,10905 Gratiot Ave,Detroit,MI,48213,541105,Grocers-Retail,541105,Grocers-Retail,42.4053433,-82.997632
H & S Castle Party Store,10035 Plymouth Rd,Detroit,MI,48204,541105,Grocers-Retail,541105,Grocers-Retail,42.37340525,-83.15893777
Harbortown Supermarket,3472 E Jefferson Ave,Detroit,MI,48207,541105,Grocers-Retail,541105,Grocers-Retail,42.34198329,-83.0137212
Harding's Friendly Market,10501 E Warren Ave,Detroit,MI,48214,541105,Grocers-Retail,541105,Grocers-Retail,42.3842574,-82.9923165
Harper Food Ctr,13999 Harper Ave,Detroit,MI,48213,541105,Grocers-Retail,541105,Grocers-Retail,42.40375527,-82.96800347
Harper Mini Mart LLC,17017 Harper Ave,Detroit,MI,48224,554101,Service Stations-Gasoline & Oil,554101,Service Stations-Gasoline & Oil,42.41638466,-82.93696258
Hi Eight,8065 W 8 Mile Rd,Detroit,MI,48221,541105,Grocers-Retail,541105,Grocers-Retail,42.44578352,-83.15144116
Hibbard Market Place,8935 E Jefferson Ave,Detroit,MI,48214,541101,Food Markets,541101,Food Markets,42.35706077,-82.98698201
Holiday's Party Store,8201 Joy Rd,Detroit,MI,48204,541105,Grocers-Retail,541105,Grocers-Retail,42.3588406,-83.1498298
Hometown Supermarket,8656 Wyoming St,Detroit,MI,48204,541105,Grocers-Retail,541105,Grocers-Retail,42.35778143,-83.15779504
Imperial Fresh,14424 Schaefer Hwy,Detroit,MI,48227,541105,Grocers-Retail,541105,Grocers-Retail,42.3943469,-83.1777824
Imperial Supermarket LLC,1940 E 8 Mile Rd,Detroit,MI,48234,541105,Grocers-Retail,541105,Grocers-Retail,42.43119761,-83.03950335
In & Out,21100 W Mcnichols Rd,Detroit,MI,48219,554101,Service Stations-Gasoline & Oil,554101,Service Stations-Gasoline & Oil,42.4150981,-83.2493181
Indian Village Market,8415 E Jefferson Ave,Detroit,MI,48214,541105,Grocers-Retail,541105,Grocers-Retail,42.35396893,-82.99107248
International Grocery,23689 W 7 Mile Rd,Detroit,MI,48219,541105,Grocers-Retail,541105,Grocers-Retail,42.42893625,-83.27396448
Jason Super Foods,17344 W 7 Mile Rd,Detroit,MI,48235,541105,Grocers-Retail,541105,Grocers-Retail,42.43024806,-83.21414949
Jay's Market,14555 Livernois Ave,Detroit,MI,48238,541105,Grocers-Retail,541105,Grocers-Retail,42.3956618,-83.1402936
Joliet Inc,13999 Harper Ave,Detroit,MI,48213,541105,Grocers-Retail,541105,Grocers-Retail,42.40375527,-82.96800347
Jt Produce,15700 Plymouth Rd,Detroit,MI,48227,541105,Grocers-Retail,541105,Grocers-Retail,42.3727793,-83.2002267
Kenwood Market,9400 Woodward Ave,Detroit,MI,48202,541105,Grocers-Retail,541105,Grocers-Retail,42.38440887,-83.08270107
Kim's Party Store,4342 W Vernor Hwy,Detroit,MI,48209,541105,Grocers-Retail,541105,Grocers-Retail,42.32056606,-83.09534254
Kit KAT Market,8330 Harper Ave,Detroit,MI,48213,541105,Grocers-Retail,541105,Grocers-Retail,42.3892617,-83.0175617
L & T Food Ctr,10240 Whittier St,Detroit,MI,48224,541105,Grocers-Retail,541105,Grocers-Retail,42.4156479,-82.9492871
LA Fiesta Market,7403 W Vernor Hwy,Detroit,MI,48209,541105,Grocers-Retail,541105,Grocers-Retail,42.313419,-83.1216944
LA Luna Supermercado,7603 Mcgraw St,Detroit,MI,48210,531104,Retail Shops,531104,Retail Shops,42.3355336,-83.1400949
LA Posada,1930 Springwells St,Detroit,MI,48209,581208,Restaurants,581208,Restaurants,42.3093264,-83.1253481
Lacarreta Market,7400 Dix St,Detroit,MI,48209,541105,Grocers-Retail,541105,Grocers-Retail,42.3171937,-83.1249925
Lafayette Foods,1565 E Lafayette St,Detroit,MI,48207,541105,Grocers-Retail,541105,Grocers-Retail,42.33784036,-83.03339752
Larrys Market,14419 Schoolcraft St,Detroit,MI,48227,541105,Grocers-Retail,541105,Grocers-Retail,42.38732691,-83.18635242
Leenas Enterprises Inc,5038 Mcdougall St,Detroit,MI,48211,592102,Liquors-Retail,592102,Liquors-Retail,42.3681717,-83.0359163
Leenora Party Store Inc,13214 Harper Ave,Detroit,MI,48213,541105,Grocers-Retail,541105,Grocers-Retail,42.40260765,-82.9712734
Liberty Food Ctr,10620 W Mcnichols Rd,Detroit,MI,48221,541105,Grocers-Retail,541105,Grocers-Retail,42.4171306,-83.1681149
Liberty Liquor,8100 E Forest Ave,Detroit,MI,48214,541105,Grocers-Retail,541105,Grocers-Retail,42.37418226,-83.01007783
Lions Den,7329 Gratiot Ave,Detroit,MI,48213,592104,Beer & Ale-Retail,592104,Beer & Ale-Retail,42.3747798,-83.017818
M & S Minimart,22700 Fenkell St,Detroit,MI,48223,541105,Grocers-Retail,541105,Grocers-Retail,42.4004581,-83.2659526
Mack's Vandyke Mini Mart,7961 Mack Ave,Detroit,MI,48214,554101,Service Stations-Gasoline & Oil,554101,Service Stations-Gasoline & Oil,42.36692075,-83.00651557
Magic Food Market,14741 W Chicago St,Detroit,MI,48228,541105,Grocers-Retail,541105,Grocers-Retail,42.36545755,-83.18903366
Manistique Market,500 Manistique St,Detroit,MI,48215,541105,Grocers-Retail,541105,Grocers-Retail,42.3684544,-82.937079
Mannone's Market,2732 Chene St,Detroit,MI,48207,541105,Grocers-Retail,541105,Grocers-Retail,42.3518629,-83.0312956
Marcus Market,4614 2nd Ave,Detroit,MI,48201,541105,Grocers-Retail,541105,Grocers-Retail,42.3526981,-83.0673278
Marks Market,1941 Springwells St,Detroit,MI,48209,541105,Grocers-Retail,541105,Grocers-Retail,42.3091415,-83.1259129
Masherah Fuel Mart,18151 W Chicago St,Detroit,MI,48228,554101,Service Stations-Gasoline & Oil,554101,Service Stations-Gasoline & Oil,42.36510468,-83.21718418
May's Market,13040 W Chicago St,Detroit,MI,48228,541105,Grocers-Retail,541105,Grocers-Retail,42.36600078,-83.17210323
Mazen Foods,12740 Gratiot Ave,Detroit,MI,48205,541105,Grocers-Retail,541105,Grocers-Retail,42.41974258,-82.98768542
Meijer,1301 W 8 Mile Rd,Detroit,MI,48203,541105,Grocers-Retail,541105,Grocers-Retail,42.42165862,-83.10229811
Meijer,21431 Grand River Ave,Detroit,MI,48219,541105,Grocers-Retail,541105,Grocers-Retail,42.41458509,-83.25306822
Metro Food Ctr,6461 W Warren Ave,Detroit,MI,48210,541105,Grocers-Retail,541105,Grocers-Retail,42.3442264,-83.1324211
Metro Food Land,18551 Grand River Ave,Detroit,MI,48223,541105,Grocers-Retail,541105,Grocers-Retail,42.40339722,-83.22523502
Michael's Short Stop,18850 W Mcnichols Rd,Detroit,MI,48219,541103,Convenience Stores,541103,Convenience Stores,42.4156358,-83.2265379
Michigan & Cabot Food Ctr,8723 Michigan Ave,Detroit,MI,48210,541104,Food Products-Retail,541104,Food Products-Retail,42.32971078,-83.14875353
Mike Fresh Market,19195 Livernois Ave,Detroit,MI,48221,541105,Grocers-Retail,541105,Grocers-Retail,42.43246495,-83.14162573
Mike's Fresh Market,14383 Gratiot Ave,Detroit,MI,48205,541105,Grocers-Retail,541105,Grocers-Retail,42.4364371,-82.9775487
Mini Mart Specialty Meat,16435 W Mcnichols Rd,Detroit,MI,48235,541103,Convenience Stores,541103,Convenience Stores,42.4154655,-83.2098277
MLK Food Ctr Inc,3181 3rd St,Detroit,MI,48201,541104,Food Products-Retail,541104,Food Products-Retail,42.34259,-83.0646352
Motor City Liquor,2313 Gratiot Ave,Detroit,MI,48207,541105,Grocers-Retail,541105,Grocers-Retail,42.3525348,-83.0324713
Mr Grocer Super Store,11742 Conner St,Detroit,MI,48205,541105,Grocers-Retail,541105,Grocers-Retail,42.4108311,-83.0046652
Mystik,9365 Van Dyke St,Detroit,MI,48213,554101,Service Stations-Gasoline & Oil,554101,Service Stations-Gasoline & Oil,42.3983294,-83.0232245
N & A Market,9500 Whittier St,Detroit,MI,48224,541105,Grocers-Retail,541105,Grocers-Retail,42.4137174,-82.94505551
Nabel Super Market,18712 W Warren Ave,Detroit,MI,48228,541105,Grocers-Retail,541105,Grocers-Retail,42.3435609,-83.2235064
Narras Market,13547 E 7 Mile Rd,Detroit,MI,48205,541105,Grocers-Retail,541105,Grocers-Retail,42.43499859,-82.98577368
Nevada Supermarket,2510 E Nevada St,Detroit,MI,48234,541105,Grocers-Retail,541105,Grocers-Retail,42.4255029,-83.0771547
New Center Super Market,8055 Woodward Ave,Detroit,MI,48202,541105,Grocers-Retail,541105,Grocers-Retail,42.3747609,-83.0768427
New Land Party Store,14601 Plymouth Rd,Detroit,MI,48227,541105,Grocers-Retail,541105,Grocers-Retail,42.3726016,-83.1879342
New Merchant Food Ctr,2819 E 7 Mile Rd,Detroit,MI,48234,541105,Grocers-Retail,541105,Grocers-Retail,42.43300702,-83.07539893
New Quick Stop Market Inc,8059 Grand River Ave,Detroit,MI,48204,541105,Grocers-Retail,541105,Grocers-Retail,42.35963516,-83.11667177
New Redford Food Ctr,21673 Grand River Ave,Detroit,MI,48219,541105,Grocers-Retail,541105,Grocers-Retail,42.4157739,-83.25608203
Ninos Market,15901 E Warren Ave,Detroit,MI,48224,541105,Grocers-Retail,541105,Grocers-Retail,42.4012581,-82.9437161
Nour Grocery,16035 W Warren Ave,Detroit,MI,48228,541105,Grocers-Retail,541105,Grocers-Retail,42.3433122,-83.2018604
Noyer Inc,11250 E Jefferson Ave,Detroit,MI,48214,541105,Grocers-Retail,541105,Grocers-Retail,42.36638839,-82.97166726
Pancho's Palace,6421 Regular St,Detroit,MI,48209,541103,Convenience Stores,541103,Convenience Stores,42.3113635,-83.1087888
Papaya,16322 W Warren Ave,Detroit,MI,48228,543101,Fruits & Vegetables & Produce-Retail,543101,Fruits & Vegetables & Produce-Retail,42.3438011,-83.2051821
Parker Street Market,1814 Parker St,Detroit,MI,48214,541105,Grocers-Retail,541105,Grocers-Retail,42.35769879,-82.99762152
Parkway Foods,11250 E Jefferson Ave,Detroit,MI,48214,581208,Restaurants,581208,Restaurants,42.36638839,-82.97166726
Paul's Place,210 Henry St,Detroit,MI,48201,541103,Convenience Stores,541103,Convenience Stores,42.33938349,-83.05669351
Pavilion,1 Lafayette Plaisance St,Detroit,MI,48207,651303,Apartments,651303,Apartments,42.33939093,-83.03825532
Payless Market,428 E Grand Blvd,Detroit,MI,48207,541105,Grocers-Retail,541105,Grocers-Retail,42.35564001,-83.00737892
Pelzer Party Shop,19900 Conant St,Detroit,MI,48234,541105,Grocers-Retail,541105,Grocers-Retail,42.4407216,-83.0789561
Piquette Market,1445 E Kirby St,Detroit,MI,48211,514704,Meat-Wholesale,514704,Meat-Wholesale,42.3656086,-83.0526533
Prince Valley Market,5931 Michigan Ave,Detroit,MI,48210,541105,Grocers-Retail,541105,Grocers-Retail,42.33105582,-83.11583336
Princess Superette Market,16342 W Mcnichols Rd,Detroit,MI,48235,592102,Liquors-Retail,592102,Liquors-Retail,42.41586613,-83.20842356
Public Foods,16226 E Warren Ave,Detroit,MI,48224,541105,Grocers-Retail,541105,Grocers-Retail,42.4019334,-82.940218
Quick Pac,21320 W 7 Mile Rd,Detroit,MI,48219,541103,Convenience Stores,541103,Convenience Stores,42.42933862,-83.25249601
R & S Kizy,9252 Erwin St,Detroit,MI,48213,541105,Grocers-Retail,541105,Grocers-Retail,42.3974187,-83.0172233
Rainbow Market,13510 E 8 Mile Rd,Detroit,MI,48205,541105,Grocers-Retail,541105,Grocers-Retail,42.44916408,-82.98675553
Rna Auto Svc,20190 Van Dyke St,Detroit,MI,48234,753801,Automobile Repairing & Service,753801,Automobile Repairing & Service,42.4449428,-83.024215
Rocky Produce Inc 2,7201 W Fort St # 2,Detroit,MI,48209,541105,Grocers-Retail,541105,Grocers-Retail,42.30246596,-83.11311931
Roseberry Market,10022 Roseberry St,Detroit,MI,48213,541105,Grocers-Retail,541105,Grocers-Retail,42.4075446,-82.98637151
Royal Fresh Market,18551 Grand River Ave,Detroit,MI,48223,541105,Grocers-Retail,541105,Grocers-Retail,42.40339722,-83.22523502
Royalty Foods,16086 E 8 Mile Rd,Detroit,MI,48205,541105,Grocers-Retail,541105,Grocers-Retail,42.44997745,-82.9552366
S & G Liquor Shop,18207 Wyoming St,Detroit,MI,48221,541105,Grocers-Retail,541105,Grocers-Retail,42.42423139,-83.16081112
Saratoga Food Mart,14130 Gratiot Ave,Detroit,MI,48205,541105,Grocers-Retail,541105,Grocers-Retail,42.4329746,-82.9786255
Saturn Super Foods,20221 Joy Rd,Detroit,MI,48228,541105,Grocers-Retail,541105,Grocers-Retail,42.3571393,-83.2389418
Sav-Mart Food Ctr,7011 Gratiot Ave,Detroit,MI,48207,541105,Grocers-Retail,541105,Grocers-Retail,42.3716362,-83.01956712
Savaya Liquor,20441 James Couzens Fwy,Detroit,MI,48235,592102,Liquors-Retail,592102,Liquors-Retail,42.4424934,-83.2012879
Save Line Market,1549 E Nevada St,Detroit,MI,48203,541105,Grocers-Retail,541105,Grocers-Retail,42.42514762,-83.08805304
Save-A-Lot Food Stores,13750 Fenkell St,Detroit,MI,48227,541105,Grocers-Retail,541105,Grocers-Retail,42.4024882,-83.1813531
Save-A-Lot Food Stores,15001 Houston Whittier St,Detroit,MI,48205,541105,Grocers-Retail,541105,Grocers-Retail,42.42083709,-82.96752175
Save-A-Lot Food Stores,20427 Plymouth Rd,Detroit,MI,48228,541105,Grocers-Retail,541105,Grocers-Retail,42.37178078,-83.24033112
Save-A-Lot Food Stores,20811 W 8 Mile Rd,Detroit,MI,48219,541105,Grocers-Retail,541105,Grocers-Retail,42.44339906,-83.24900884
Save-A-Lot Food Stores,3681 Gratiot Ave,Detroit,MI,48207,541105,Grocers-Retail,541105,Grocers-Retail,42.36393954,-83.02465649
Save-A-Lot Food Stores,4703 Conner St,Detroit,MI,48215,541105,Grocers-Retail,541105,Grocers-Retail,42.3872547,-82.97107529
Save-A-Lot Food Stores,5181 Grand River Ave,Detroit,MI,48208,541105,Grocers-Retail,541105,Grocers-Retail,42.35002508,-83.09282924
Saveway Market,8031 Dix St,Detroit,MI,48209,541105,Grocers-Retail,541105,Grocers-Retail,42.3166711,-83.1321821
Saving Barrel Market,8560 Grand River Ave,Detroit,MI,48204,539901,General Merchandise-Retail,539901,General Merchandise-Retail,42.36204988,-83.12217615
Savon Food Store,15025 W 7 Mile Rd,Detroit,MI,48235,541105,Grocers-Retail,541105,Grocers-Retail,42.43046803,-83.19491667
Savon Foods Super Market,18000 Livernois Ave,Detroit,MI,48221,541105,Grocers-Retail,541105,Grocers-Retail,42.4234579,-83.1407259
Savon-Livernois,18000 Livernois Ave,Detroit,MI,48221,531104,Retail Shops,531104,Retail Shops,42.4234579,-83.1407259
Sea World Fish Market,15084 Gratiot Ave,Detroit,MI,48205,542101,Seafood-Retail,542101,Seafood-Retail,42.4447831,-82.97119014
Seaway Market Place,18330 W Chicago St,Detroit,MI,48228,541105,Grocers-Retail,541105,Grocers-Retail,42.36509954,-83.21945218
Seven Stars Food Ctr,11500 E Mcnichols Rd,Detroit,MI,48205,541105,Grocers-Retail,541105,Grocers-Retail,42.4196791,-83.0055491
Shkaga Inc,14424 Schaefer Hwy,Detroit,MI,48227,541105,Grocers-Retail,541105,Grocers-Retail,42.3943469,-83.1777824
Special Way Market,15735 Schoolcraft St,Detroit,MI,48227,592104,Beer & Ale-Retail,592104,Beer & Ale-Retail,42.3867461,-83.2012891
Star Of Woodward,5730 Woodward Ave,Detroit,MI,48202,541105,Grocers-Retail,541105,Grocers-Retail,42.3627222,-83.0675215
State Deli,1200 Washington Blvd,Detroit,MI,48226,541105,Grocers-Retail,541105,Grocers-Retail,42.3326646,-83.0504302
Stop & Shop Supermarket Co,407 E Fort St,Detroit,MI,48226,541105,Grocers-Retail,541105,Grocers-Retail,42.33282506,-83.0425335
Sunshine Market,14812 Livernois Ave,Detroit,MI,48238,592102,Liquors-Retail,592102,Liquors-Retail,42.3983132,-83.1396891
Super Giant Liquor Store,8830 Gratiot Ave,Detroit,MI,48213,541105,Grocers-Retail,541105,Grocers-Retail,42.38630853,-83.00963122
Super Mercado LA-Piedad,7101 W Vernor Hwy,Detroit,MI,48209,541105,Grocers-Retail,541105,Grocers-Retail,42.31429861,-83.12004593
Super Value Mart LLC,15441 Plymouth Rd,Detroit,MI,48227,541105,Grocers-Retail,541105,Grocers-Retail,42.3724825,-83.19690113
Supermercardo LA Jaliscencell,3923 W Vernor Hwy,Detroit,MI,48216,531104,Retail Shops,531104,Retail Shops,42.32215001,-83.09082322
Supreme Food Ctr Inc,16135 Schoolcraft St,Detroit,MI,48227,541105,Grocers-Retail,541105,Grocers-Retail,42.3866792,-83.2048834
T N Foods Inc,1515 Alfred St,Detroit,MI,48207,514107,Food Bulk (Whls),514107,Food Bulk (Whls),42.34882,-83.0396992
Tayven Food Corp Southfield,23800 Grand River Ave,Detroit,MI,48219,581208,Restaurants,581208,Restaurants,42.42430165,-83.27645819
Temple Trumbull Market,2846 Trumbull St,Detroit,MI,48216,541105,Grocers-Retail,541105,Grocers-Retail,42.3379,-83.0701444
Three B Party Store,18300 W Warren Ave,Detroit,MI,48228,541105,Grocers-Retail,541105,Grocers-Retail,42.3436084,-83.2186809
Thrifty Scot Supermarket,3431 Joy Rd,Detroit,MI,48206,541105,Grocers-Retail,541105,Grocers-Retail,42.3704573,-83.1161691
Timmy's Market Inc,17700 W 7 Mile Rd,Detroit,MI,48235,541105,Grocers-Retail,541105,Grocers-Retail,42.43016476,-83.21718941
Tobey's Market,5546 Chopin St,Detroit,MI,48210,541105,Grocers-Retail,541105,Grocers-Retail,42.3367396,-83.1370901
Tower Liquor Shoppe Inc,12700 Grand River Ave,Detroit,MI,48227,541105,Grocers-Retail,541105,Grocers-Retail,42.38067901,-83.16842932
Town Food,7811 Gratiot Ave,Detroit,MI,48213,541104,Food Products-Retail,541104,Food Products-Retail,42.378197,-83.0155632
Unique Food Market,1681 Lawndale St,Detroit,MI,48209,541105,Grocers-Retail,541105,Grocers-Retail,42.3051834,-83.1301062
United African Market,20139 Joy Rd,Detroit,MI,48228,541105,Grocers-Retail,541105,Grocers-Retail,42.3572514,-83.2380174
University Food Ctr,1131 W Warren Ave,Detroit,MI,48201,541105,Grocers-Retail,541105,Grocers-Retail,42.35341743,-83.07418985
Us Quality Supermarket,15690 Joy Rd # 2,Detroit,MI,48228,531104,Retail Shops,531104,Retail Shops,42.3591634,-83.1992798
Value Save Food Ctr,14470 Livernois Ave # 1,Detroit,MI,48238,541105,Grocers-Retail,541105,Grocers-Retail,42.3960326,-83.1378941
Vernor Food Ctr,8801 W Vernor Hwy,Detroit,MI,48209,541105,Grocers-Retail,541105,Grocers-Retail,42.3086323,-83.1334578
Vic's Market,5009 Tireman St,Detroit,MI,48204,541105,Grocers-Retail,541105,Grocers-Retail,42.3527394,-83.119468
Wagner Market,5804 Tarnow St,Detroit,MI,48210,541105,Grocers-Retail,541105,Grocers-Retail,42.3381093,-83.13945979
Wally's,161 W Congress St,Detroit,MI,48226,541103,Convenience Stores,541103,Convenience Stores,42.32938725,-83.04749242
Warren Bakery,16010 W Warren Ave,Detroit,MI,48228,546102,Bakers-Retail,546102,Bakers-Retail,42.3438334,-83.2015909
Whittier Market Inc,10240 Whittier St,Detroit,MI,48224,599999,Miscellaneous Retail Stores NEC,599999,Miscellaneous Retail Stores NEC,42.4156479,-82.9492871
Whole Foods Market,115 Mack Ave,Detroit,MI,48201,541105,Grocers-Retail,541105,Grocers-Retail,42.3481223,-83.05686074
Wigley's Meats & Produce,3405 Russell St,Detroit,MI,48207,542107,Meat-Retail,542107,Meat-Retail,42.35045444,-83.04340165
Wonder Foods,10450 Shoemaker St,Detroit,MI,48213,541105,Grocers-Retail,541105,Grocers-Retail,42.38931786,-82.99683866
Wyoming & Six Food Market,17124 Wyoming St,Detroit,MI,48221,541105,Grocers-Retail,541105,Grocers-Retail,42.4174001,-83.1599806
Y & Z Party Store,11200 Hayes St,Detroit,MI,48213,541105,Grocers-Retail,541105,Grocers-Retail,42.4177427,-82.9645597
Yeman Market,4044 Miller St,Detroit,MI,48211,541105,Grocers-Retail,541105,Grocers-Retail,42.3904062,-83.040205
Yorkshire Food Market,16711 Mack Ave,Detroit,MI,48224,541105,Grocers-Retail,541105,Grocers-Retail,42.3935575,-82.9265189
