Company Name,Address,City,State,ZIP Code,Primary SIC Code,Primary SIC Description
99 Cent Store,17510 Livernois Ave,Detroit,MI,48221,531104,Retail Shops
Almost Ninety-Ninety Ctr Store,309 W 7 Mile Rd,Detroit,MI,48203,531104,Retail Shops
Artloft,4160 Cass Ave # C,Detroit,MI,48201,571929,Housewares-Retail
Bargain Clubbiz,13940 Tireman St,Detroit,MI,48228,531104,Retail Shops
C K Minyarie LLC,220 Bagley St,Detroit,MI,48226,531104,Retail Shops
Complete Dollar Store,18200 Plymouth Rd,Detroit,MI,48228,531104,Retail Shops
D's Dollar Place,11831 Livernois Ave,Detroit,MI,48204,531104,Retail Shops
Danny's Dollar Store,14353 Livernois Ave,Detroit,MI,48238,531104,Retail Shops
Dmr Properties Inc,645 Washington Blvd,Detroit,MI,48226,531104,Retail Shops
Dollar & Up,11351 Morang Dr,Detroit,MI,48224,531104,Retail Shops
Dollar Amigo Plus,17321 W 7 Mile Rd,Detroit,MI,48235,531104,Retail Shops
Dollar Castle,16810 Schaefer Hwy,Detroit,MI,48235,531104,Retail Shops
Dollar Center,15405 Gratiot Ave # 500,Detroit,MI,48205,533101,Variety Stores
Dollar Center 39,10740 W Mcnichols Rd,Detroit,MI,48221,531104,Retail Shops
Dollar Crown Inc,8100 E 7 Mile Rd,Detroit,MI,48234,531104,Retail Shops
Dollar Daze Plus,13881 Gratiot Ave,Detroit,MI,48205,533101,Variety Stores
Dollar Deal Plus,18610 Fenkell St # B,Detroit,MI,48223,531104,Retail Shops
Dollar General,10220 Gratiot Ave,Detroit,MI,48213,533101,Variety Stores
Dollar General,10920 E Jefferson Ave,Detroit,MI,48214,533101,Variety Stores
Dollar General,12421 Hayes St,Detroit,MI,48205,533101,Variety Stores
Dollar General,12555 Grand River Ave # 900,Detroit,MI,48204,533101,Variety Stores
Dollar General,12815 E Jefferson Ave,Detroit,MI,48215,533101,Variety Stores
Dollar General,13341 E 7 Mile Rd,Detroit,MI,48205,533101,Variety Stores
Dollar General,14611 W Mcnichols Rd,Detroit,MI,48235,533101,Variety Stores
Dollar General,1559 E Lafayette St,Detroit,MI,48207,533101,Variety Stores
Dollar General,18209 Joy Rd,Detroit,MI,48228,533101,Variety Stores
Dollar General,18604 Fenkell St,Detroit,MI,48223,533101,Variety Stores
Dollar General,18609 W 7 Mile Rd # 45,Detroit,MI,48219,533101,Variety Stores
Dollar General,20164 Van Dyke St,Detroit,MI,48234,533101,Variety Stores
Dollar General,3000 W Davison,Detroit,MI,48238,533101,Variety Stores
Dollar General,3812 E Davison St,Detroit,MI,48212,533101,Variety Stores
Dollar General,4705b Conner St,Detroit,MI,48215,533101,Variety Stores
Dollar General,8800 Schaefer Hwy,Detroit,MI,48228,533101,Variety Stores
Dollar General,9350 Woodward Ave,Detroit,MI,48202,533101,Variety Stores
Dollar Senter,21201 W 8 Mile Rd,Detroit,MI,48219,531104,Retail Shops
Dollar Store Of Southfield,7970 W Outer Dr,Detroit,MI,48235,531104,Retail Shops
Dollar Tree,10946 Gratiot Ave,Detroit,MI,48213,533101,Variety Stores
Dollar Tree,11535 Hayes St,Detroit,MI,48205,533101,Variety Stores
Dollar Tree,11960 E Warren Ave,Detroit,MI,48214,533101,Variety Stores
Dollar Tree,13018 Fenkell St,Detroit,MI,48227,533101,Variety Stores
Dollar Tree,13240 E Jefferson Ave,Detroit,MI,48215,533101,Variety Stores
Dollar Tree,17931 E Warren Ave,Detroit,MI,48224,533101,Variety Stores
Dollar Tree,18611 Joy Rd,Detroit,MI,48228,533101,Variety Stores
Dollar Tree,20430 Van Dyke St,Detroit,MI,48234,533101,Variety Stores
Dollar Tree,2050 E 8 Mile Rd,Detroit,MI,48234,533101,Variety Stores
Dollar Tree,21310 Grand River Ave,Detroit,MI,48219,533101,Variety Stores
Dollar Tree,2300 W Davison,Detroit,MI,48238,533101,Variety Stores
Dollar Tree,2545 S Schaefer Hwy,Detroit,MI,48217,533101,Variety Stores
Dollar Tree,2720 E Jefferson Ave,Detroit,MI,48207,533101,Variety Stores
Dollar Tree,6138 W Vernor Hwy,Detroit,MI,48209,533101,Variety Stores
Dollar Value Plus 9 Inc,11821 Gratiot Ave,Detroit,MI,48213,531104,Retail Shops
Ds Dollar Place,13020 E 7 Mile Rd,Detroit,MI,48205,531104,Retail Shops
Family Dollar Store,10130 W 7 Mile Rd,Detroit,MI,48221,533101,Variety Stores
Family Dollar Store,10950 Gratiot Ave,Detroit,MI,48213,533101,Variety Stores
Family Dollar Store,11630 Greenfield Rd,Detroit,MI,48227,533101,Variety Stores
Family Dollar Store,12207 Grand River Ave,Detroit,MI,48204,533101,Variety Stores
Family Dollar Store,12420 Conant St,Detroit,MI,48212,533101,Variety Stores
Family Dollar Store,12511 Morang Dr,Detroit,MI,48224,533101,Variety Stores
Family Dollar Store,12603 Dexter Ave,Detroit,MI,48238,533101,Variety Stores
Family Dollar Store,13110 W Mcnichols Rd,Detroit,MI,48235,533101,Variety Stores
Family Dollar Store,13433 W 8 Mile Rd,Detroit,MI,48235,533101,Variety Stores
Family Dollar Store,14305 Harper Ave,Detroit,MI,48213,533101,Variety Stores
Family Dollar Store,14318 Gratiot Ave,Detroit,MI,48205,533101,Variety Stores
Family Dollar Store,14321 Livernois Ave,Detroit,MI,48238,533101,Variety Stores
Family Dollar Store,14642 Mack Ave,Detroit,MI,48215,533101,Variety Stores
Family Dollar Store,15000 W 7 Mile Rd,Detroit,MI,48235,533101,Variety Stores
Family Dollar Store,15025 W Mcnichols Rd,Detroit,MI,48235,533101,Variety Stores
Family Dollar Store,15200 E Warren Ave,Detroit,MI,48224,533101,Variety Stores
Family Dollar Store,15495 Schaefer Hwy,Detroit,MI,48227,533101,Variety Stores
Family Dollar Store,15800 Grand River Ave,Detroit,MI,48227,533101,Variety Stores
Family Dollar Store,16401 Harper Ave,Detroit,MI,48224,533101,Variety Stores
Family Dollar Store,17241 E Warren Ave,Detroit,MI,48224,533101,Variety Stores
Family Dollar Store,17729 Tireman St,Detroit,MI,48228,533101,Variety Stores
Family Dollar Store,18201 Schoolcraft,Detroit,MI,48223,533101,Variety Stores
Family Dollar Store,19136 Telegraph Rd,Detroit,MI,48219,533101,Variety Stores
Family Dollar Store,19340 W Warren Ave,Detroit,MI,48228,533101,Variety Stores
Family Dollar Store,19800 Plymouth Rd,Detroit,MI,48228,533101,Variety Stores
Family Dollar Store,19848 Joy Rd,Detroit,MI,48228,533101,Variety Stores
Family Dollar Store,20000 Grand River Ave,Detroit,MI,48219,533101,Variety Stores
Family Dollar Store,20266 W 7 Mile Rd,Detroit,MI,48219,533101,Variety Stores
Family Dollar Store,20528 Lahser Rd,Detroit,MI,48219,533101,Variety Stores
Family Dollar Store,22200 Grand River Ave,Detroit,MI,48219,533101,Variety Stores
Family Dollar Store,2322 W Grand Blvd,Detroit,MI,48208,533101,Variety Stores
Family Dollar Store,3401 Grand River Ave,Detroit,MI,48208,533101,Variety Stores
Family Dollar Store,3911 Joy Rd,Detroit,MI,48206,533101,Variety Stores
Family Dollar Store,401 E 7 Mile Rd,Detroit,MI,48203,533101,Variety Stores
Family Dollar Store,4271 Livernois Ave,Detroit,MI,48210,533101,Variety Stores
Family Dollar Store,4645 W Vernor Hwy,Detroit,MI,48209,533101,Variety Stores
Family Dollar Store,6471 W Warren Ave,Detroit,MI,48210,533101,Variety Stores
Family Dollar Store,7009 W 7 Mile Rd,Detroit,MI,48221,533101,Variety Stores
Family Dollar Store,7070 Gratiot Ave,Detroit,MI,48207,533101,Variety Stores
Family Dollar Store,8000 Michigan Ave,Detroit,MI,48210,533101,Variety Stores
Family Dollar Store,8031 W Mcnichols Rd,Detroit,MI,48221,533101,Variety Stores
Family Dollar Store,8115 W Vernor Hwy,Detroit,MI,48209,533101,Variety Stores
Family Dollar Store,8500 Woodward Ave,Detroit,MI,48202,533101,Variety Stores
Family Dollar Store,8667 Rosa Parks Blvd,Detroit,MI,48206,533101,Variety Stores
Family Dollar Store,8720 E 7 Mile Rd,Detroit,MI,48234,533101,Variety Stores
Family Dollar Store,8916 Tireman St,Detroit,MI,48204,533101,Variety Stores
Family Dollar Store,9911 E Jefferson Ave,Detroit,MI,48214,533101,Variety Stores
Fenkell Market & More,14621 Fenkell St,Detroit,MI,48227,531104,Retail Shops
Germack Coffee Roasting,2517 Russell St,Detroit,MI,48207,581228,Coffee Shops
Gigante Prince Valley,5931 Michigan Ave,Detroit,MI,48210,531104,Retail Shops
Greenfield Inc,15530 W Warren Ave,Detroit,MI,48228,533101,Variety Stores
Haddah Party Store,2280 Saint Clair St,Detroit,MI,48214,541103,Convenience Stores
Imperial Supermarket LLC,1940 E 8 Mile Rd,Detroit,MI,48234,541105,Grocers-Retail
Jangoon Corp,12555 Grand River Ave,Detroit,MI,48204,531104,Retail Shops
K&G Fashion Superstore,2001 W 8 Mile Rd,Detroit,MI,48203,565101,Clothing-Retail
Khemmoro,7577 W 8 Mile Rd,Detroit,MI,48221,531104,Retail Shops
LA Luna Supermercado,7603 Mcgraw St,Detroit,MI,48210,531104,Retail Shops
Lady Luck Collection,14845 Washburn St,Detroit,MI,48238,531104,Retail Shops
Lafayette Foods,1565 E Lafayette St,Detroit,MI,48207,541105,Grocers-Retail
Nice Price,5630 W Vernor Hwy,Detroit,MI,48209,531104,Retail Shops
Porsche Design Hugo Boss,1 Detroit Metro Airport,Detroit,MI,48242,531104,Retail Shops
Rifai Inc,18510 W Warren Ave,Detroit,MI,48228,531104,Retail Shops
Savon-Livernois,18000 Livernois Ave,Detroit,MI,48221,531104,Retail Shops
Super Star Dollar Store,12220 E 8 Mile Rd,Detroit,MI,48205,533101,Variety Stores
Supermercardo LA Jaliscencell,3923 W Vernor Hwy,Detroit,MI,48216,531104,Retail Shops
Us Quality Supermarket,15690 Joy Rd # 2,Detroit,MI,48228,531104,Retail Shops
Value Dollar Store,4539 Trumbull St,Detroit,MI,48208,554101,Service Stations-Gasoline & Oil
Venn Parking LLC,4142 Cass Ave # 202,Detroit,MI,48201,752102,Parking Stations & Garages
Z's Amazing Savings,7802 Mack Ave,Detroit,MI,48214,533101,Variety Stores
